{
    "links": {
        "self": "http://www.neowsapp.com/rest/v1/neo/3943331?api_key=iIulBulltgU6a56xZRHN4H3l9WmuAYTsLGpBGhQ2"
    },
    "id": "3943331",
    "neo_reference_id": "3943331",
    "name": "(2019 YF1)",
    "designation": "2019 YF1",
    "nasa_jpl_url": "http://ssd.jpl.nasa.gov/sbdb.cgi?sstr=3943331",
    "absolute_magnitude_h": 24.1,
    "estimated_diameter": {
        "kilometers": {
            "estimated_diameter_min": 0.040230458,
            "estimated_diameter_max": 0.0899580388
        },
        "meters": {
            "estimated_diameter_min": 40.2304579834,
            "estimated_diameter_max": 89.9580388169
        },
        "miles": {
            "estimated_diameter_min": 0.0249980399,
            "estimated_diameter_max": 0.0558973165
        },
        "feet": {
            "estimated_diameter_min": 131.9896957704,
            "estimated_diameter_max": 295.1379320721
        }
    },
    "is_potentially_hazardous_asteroid": false,
    "close_approach_data": [
        {
            "close_approach_date": "2019-12-20",
            "close_approach_date_full": "2019-Dec-20 16:41",
            "epoch_date_close_approach": 1576860060000,
            "relative_velocity": {
                "kilometers_per_second": "8.3700092945",
                "kilometers_per_hour": "30132.033460366",
                "miles_per_hour": "18722.8737909702"
            },
            "miss_distance": {
                "astronomical": "0.1170234816",
                "lunar": "45.5221343424",
                "kilometers": "17506463.587344192",
                "miles": "10878012.0530541696"
            },
            "orbiting_body": "Earth"
        }
    ],
    "orbital_data": {
        "orbit_id": "1",
        "orbit_determination_date": "2019-12-21 11:12:07",
        "first_observation_date": "2019-12-19",
        "last_observation_date": "2019-12-21",
        "data_arc_in_days": 2,
        "observations_used": 26,
        "orbit_uncertainty": "8",
        "minimum_orbit_intersection": ".08856",
        "jupiter_tisserand_invariant": "3.214",
        "epoch_osculation": "2458837.5",
        "eccentricity": ".5702313354571051",
        "semi_major_axis": "2.492348457055454",
        "inclination": "7.740099711445716",
        "ascending_node_longitude": "85.5675664760798",
        "orbital_period": "1437.181336562465",
        "perihelion_distance": "1.071133267964267",
        "perihelion_argument": "350.1856739444652",
        "aphelion_distance": "3.913563646146641",
        "perihelion_time": "2458830.642397995412",
        "mean_anomaly": "1.717762859039451",
        "mean_motion": ".2504903110285784",
        "equinox": "J2000",
        "orbit_class": {
            "orbit_class_type": "AMO",
            "orbit_class_description": "Near-Earth asteroid orbits similar to that of 1221 Amor",
            "orbit_class_range": "1.017 AU < q (perihelion) < 1.3 AU"
        }
    },
    "is_sentry_object": false
}